[{"OBJECT_NAME":"TDRS 3","OBJECT_ID":"1988-091B","EPOCH":"2026-02-26T20:18:23.173920","MEAN_MOTION":1.00261626,"ECCENTRICITY":0.0044225,"INCLINATION":12.6852,"RA_OF_ASC_NODE":341.7287,"ARG_OF_PERICENTER":351.9002,"MEAN_ANOMALY":78.3575,"EPHEMERIS_TYPE":0,"CLASSIFICATION_TYPE":"U","NORAD_CAT_ID":19548,"ELEMENT_SET_NO":999,"REV_AT_EPOCH":12428,"BSTAR":0,"MEAN_MOTION_DOT":-3.06e-6,"MEAN_MOTION_DDOT":0},{"OBJECT_NAME":"HST","OBJECT_ID":"1990-037B","EPOCH":"2026-03-02T08:57:46.083456","MEAN_MOTION":15.29345912,"ECCENTRICITY":0.00016383,"INCLINATION":28.47,"RA_OF_ASC_NODE":89.9045,"ARG_OF_PERICENTER":52.0942,"MEAN_ANOMALY":307.9801,"EPHEMERIS_TYPE":0,"CLASSIFICATION_TYPE":"U","NORAD_CAT_ID":20580,"ELEMENT_SET_NO":999,"REV_AT_EPOCH":77219,"BSTAR":0.0003034347,"MEAN_MOTION_DOT":9.122e-5,"MEAN_MOTION_DDOT":0},{"OBJECT_NAME":"TDRS 5","OBJECT_ID":"1991-054B","EPOCH":"2026-03-02T13:08:38.512608","MEAN_MOTION":1.00265486,"ECCENTRICITY":0.0011089,"INCLINATION":14.0843,"RA_OF_ASC_NODE":354.567,"ARG_OF_PERICENTER":277.1432,"MEAN_ANOMALY":278.2866,"EPHEMERIS_TYPE":0,"CLASSIFICATION_TYPE":"U","NORAD_CAT_ID":21639,"ELEMENT_SET_NO":999,"REV_AT_EPOCH":12664,"BSTAR":0,"MEAN_MOTION_DOT":7.4e-7,"MEAN_MOTION_DDOT":0},{"OBJECT_NAME":"TDRS 6","OBJECT_ID":"1993-003B","EPOCH":"2026-03-02T12:45:32.897664","MEAN_MOTION":1.00279431,"ECCENTRICITY":0.00056066,"INCLINATION":14.1806,"RA_OF_ASC_NODE":357.8486,"ARG_OF_PERICENTER":201.3749,"MEAN_ANOMALY":106.4555,"EPHEMERIS_TYPE":0,"CLASSIFICATION_TYPE":"U","NORAD_CAT_ID":22314,"ELEMENT_SET_NO":999,"REV_AT_EPOCH":12133,"BSTAR":0,"MEAN_MOTION_DOT":-3.05e-6,"MEAN_MOTION_DDOT":0},{"OBJECT_NAME":"TDRS 7","OBJECT_ID":"1995-035B","EPOCH":"2026-03-02T14:48:21.278016","MEAN_MOTION":1.00276971,"ECCENTRICITY":0.0008125,"INCLINATION":13.4211,"RA_OF_ASC_NODE":348.9207,"ARG_OF_PERICENTER":47.1447,"MEAN_ANOMALY":75.4029,"EPHEMERIS_TYPE":0,"CLASSIFICATION_TYPE":"U","NORAD_CAT_ID":23613,"ELEMENT_SET_NO":999,"REV_AT_EPOCH":11218,"BSTAR":0,"MEAN_MOTION_DOT":-2.49e-6,"MEAN_MOTION_DDOT":0},{"OBJECT_NAME":"ISS (ZARYA)","OBJECT_ID":"1998-067A","EPOCH":"2026-03-02T13:02:22.015104","MEAN_MOTION":15.48401384,"ECCENTRICITY":0.0008241,"INCLINATION":51.6317,"RA_OF_ASC_NODE":107.6867,"ARG_OF_PERICENTER":149.4104,"MEAN_ANOMALY":210.7366,"EPHEMERIS_TYPE":0,"CLASSIFICATION_TYPE":"U","NORAD_CAT_ID":25544,"ELEMENT_SET_NO":999,"REV_AT_EPOCH":55522,"BSTAR":0.00019033,"MEAN_MOTION_DOT":9.842e-5,"MEAN_MOTION_DDOT":0},{"OBJECT_NAME":"TERRA","OBJECT_ID":"1999-068A","EPOCH":"2026-03-02T19:23:15.487296","MEAN_MOTION":14.61006057,"ECCENTRICITY":0.0002235,"INCLINATION":97.9608,"RA_OF_ASC_NODE":115.505,"ARG_OF_PERICENTER":168.5808,"MEAN_ANOMALY":303.7174,"EPHEMERIS_TYPE":0,"CLASSIFICATION_TYPE":"U","NORAD_CAT_ID":25994,"ELEMENT_SET_NO":999,"REV_AT_EPOCH":39407,"BSTAR":0.00012082,"MEAN_MOTION_DOT":5.48e-6,"MEAN_MOTION_DDOT":0},{"OBJECT_NAME":"TDRS 8","OBJECT_ID":"2000-034A","EPOCH":"2026-03-02T16:29:34.452384","MEAN_MOTION":1.00276827,"ECCENTRICITY":0.0006156,"INCLINATION":12.5161,"RA_OF_ASC_NODE":32.2098,"ARG_OF_PERICENTER":306.8866,"MEAN_ANOMALY":153.4916,"EPHEMERIS_TYPE":0,"CLASSIFICATION_TYPE":"U","NORAD_CAT_ID":26388,"ELEMENT_SET_NO":999,"REV_AT_EPOCH":9411,"BSTAR":0,"MEAN_MOTION_DOT":-2.06e-6,"MEAN_MOTION_DDOT":0},{"OBJECT_NAME":"TIMED","OBJECT_ID":"2001-055B","EPOCH":"2026-03-02T11:39:31.245984","MEAN_MOTION":14.94995763,"ECCENTRICITY":0.00029299,"INCLINATION":74.066,"RA_OF_ASC_NODE":89.8202,"ARG_OF_PERICENTER":283.7118,"MEAN_ANOMALY":76.3741,"EPHEMERIS_TYPE":0,"CLASSIFICATION_TYPE":"U","NORAD_CAT_ID":26998,"ELEMENT_SET_NO":999,"REV_AT_EPOCH":31487,"BSTAR":0.00015099915,"MEAN_MOTION_DOT":1.612e-5,"MEAN_MOTION_DDOT":0},{"OBJECT_NAME":"AQUA","OBJECT_ID":"2002-022A","EPOCH":"2026-03-02T21:38:17.664576","MEAN_MOTION":14.61956893,"ECCENTRICITY":6.85e-5,"INCLINATION":98.4162,"RA_OF_ASC_NODE":29.1435,"ARG_OF_PERICENTER":56.8605,"MEAN_ANOMALY":326.0417,"EPHEMERIS_TYPE":0,"CLASSIFICATION_TYPE":"U","NORAD_CAT_ID":27424,"ELEMENT_SET_NO":999,"REV_AT_EPOCH":26774,"BSTAR":0.00026639,"MEAN_MOTION_DOT":1.285e-5,"MEAN_MOTION_DDOT":0},{"OBJECT_NAME":"SORCE","OBJECT_ID":"2003-004A","EPOCH":"2026-03-02T15:44:59.919648","MEAN_MOTION":15.03033305,"ECCENTRICITY":0.0016843,"INCLINATION":39.9904,"RA_OF_ASC_NODE":149.189,"ARG_OF_PERICENTER":2.4266,"MEAN_ANOMALY":357.6607,"EPHEMERIS_TYPE":0,"CLASSIFICATION_TYPE":"U","NORAD_CAT_ID":27651,"ELEMENT_SET_NO":999,"REV_AT_EPOCH":25586,"BSTAR":0.00034049,"MEAN_MOTION_DOT":4.531e-5,"MEAN_MOTION_DDOT":0},{"OBJECT_NAME":"AURA","OBJECT_ID":"2004-026A","EPOCH":"2026-03-02T20:22:32.577888","MEAN_MOTION":14.61129129,"ECCENTRICITY":0.000102,"INCLINATION":98.3299,"RA_OF_ASC_NODE":17.5081,"ARG_OF_PERICENTER":77.7244,"MEAN_ANOMALY":282.407,"EPHEMERIS_TYPE":0,"CLASSIFICATION_TYPE":"U","NORAD_CAT_ID":28376,"ELEMENT_SET_NO":999,"REV_AT_EPOCH":15068,"BSTAR":0.00026327,"MEAN_MOTION_DOT":1.247e-5,"MEAN_MOTION_DDOT":0},{"OBJECT_NAME":"SWIFT","OBJECT_ID":"2004-047A","EPOCH":"2026-03-02T16:45:37.561824","MEAN_MOTION":15.58589795,"ECCENTRICITY":0.0002913,"INCLINATION":20.553,"RA_OF_ASC_NODE":280.3797,"ARG_OF_PERICENTER":300.54,"MEAN_ANOMALY":59.4756,"EPHEMERIS_TYPE":0,"CLASSIFICATION_TYPE":"U","NORAD_CAT_ID":28485,"ELEMENT_SET_NO":999,"REV_AT_EPOCH":17017,"BSTAR":0.00055791,"MEAN_MOTION_DOT":0.00045631,"MEAN_MOTION_DDOT":0},{"OBJECT_NAME":"THEMIS A","OBJECT_ID":"2007-004A","EPOCH":"2026-03-01T17:18:56.312640","MEAN_MOTION":0.87847075,"ECCENTRICITY":0.84069367,"INCLINATION":6.6915,"RA_OF_ASC_NODE":120.6573,"ARG_OF_PERICENTER":176.6389,"MEAN_ANOMALY":200.684,"EPHEMERIS_TYPE":0,"CLASSIFICATION_TYPE":"U","NORAD_CAT_ID":30580,"ELEMENT_SET_NO":999,"REV_AT_EPOCH":4033,"BSTAR":-0.0044752122,"MEAN_MOTION_DOT":-1.69e-6,"MEAN_MOTION_DDOT":0},{"OBJECT_NAME":"THEMIS D","OBJECT_ID":"2007-004D","EPOCH":"2026-03-02T17:44:50.608032","MEAN_MOTION":0.87836024,"ECCENTRICITY":0.8359377,"INCLINATION":6.5819,"RA_OF_ASC_NODE":84.8181,"ARG_OF_PERICENTER":215.4145,"MEAN_ANOMALY":150.0134,"EPHEMERIS_TYPE":0,"CLASSIFICATION_TYPE":"U","NORAD_CAT_ID":30797,"ELEMENT_SET_NO":999,"REV_AT_EPOCH":4014,"BSTAR":0,"MEAN_MOTION_DOT":-2.2e-6,"MEAN_MOTION_DDOT":0},{"OBJECT_NAME":"THEMIS E","OBJECT_ID":"2007-004E","EPOCH":"2026-03-02T17:45:50.513472","MEAN_MOTION":0.87837816,"ECCENTRICITY":0.8363324,"INCLINATION":4.0993,"RA_OF_ASC_NODE":100.0113,"ARG_OF_PERICENTER":201.1662,"MEAN_ANOMALY":164.6026,"EPHEMERIS_TYPE":0,"CLASSIFICATION_TYPE":"U","NORAD_CAT_ID":30798,"ELEMENT_SET_NO":999,"REV_AT_EPOCH":6498,"BSTAR":0,"MEAN_MOTION_DOT":-2.27e-6,"MEAN_MOTION_DDOT":0},{"OBJECT_NAME":"FGRST (GLAST)","OBJECT_ID":"2008-029A","EPOCH":"2026-03-02T19:19:04.248192","MEAN_MOTION":15.23265547,"ECCENTRICITY":0.0008579,"INCLINATION":25.581,"RA_OF_ASC_NODE":222.8016,"ARG_OF_PERICENTER":147.7649,"MEAN_ANOMALY":212.3415,"EPHEMERIS_TYPE":0,"CLASSIFICATION_TYPE":"U","NORAD_CAT_ID":33053,"ELEMENT_SET_NO":999,"REV_AT_EPOCH":97959,"BSTAR":0.00018099,"MEAN_MOTION_DOT":4.754e-5,"MEAN_MOTION_DDOT":0}]
